{
  "norad_id": 63701,
  "name": "STARLINK-33950",
  "history": [
    {
      "epoch": "2026-03-28T12:57:19.550304",
      "apogee_km": 476.0863484251313,
      "perigee_km": 474.3661542490463,
      "latitude_deg": 9.438510517406602,
      "longitude_deg": -118.07827744004317,
      "semi_major_axis_km": 6853.3632513370885,
      "eccentricity": 0.0001255,
      "inclination_deg": 53.1582,
      "raan_deg": 132.145,
      "arg_perigee_deg": 83.2476,
      "mean_anomaly_deg": 276.8668,
      "mean_motion_rev_day": 15.30196255
    }
  ]
}